NORAD_CAT_ID,OBJECT_NAME,OBJECT_TYPE,EPOCH,MEAN_MOTION,ECCENTRICITY,INCLINATION,RA_OF_ASC_NODE,ARG_OF_PERICENTER,MEAN_ANOMALY,BSTAR,MEAN_MOTION_DOT,MEAN_MOTION_DDOT,TLE_LINE0,TLE_LINE1,TLE_LINE2,SEMIMAJOR_AXIS,PERIOD,APOGEE,PERIGEE,DECAYED
52580.0,STARLINK-3919,PAYLOAD,2023-12-20 19:26:05,15.08837243,0.0001278,53.2166,169.8235,88.4596,271.6542,4.5211e-05,4.32e-06,0.0,0 STARLINK-3919,1 52580U 22051AW  23354.80978966  .00000432  00000-0  45211-4 0  9996,2 52580  53.2166 169.8235 0001278  88.4596 271.6542 15.08837243 89181,6917.889,95.438,540.638,538.87,0.0
52580.0,STARLINK-3919,PAYLOAD,2023-12-21 16:06:06,15.08834199,0.0001385,53.2171,165.9557,73.82,286.2945,0.00010212,1.337e-05,0.0,0 STARLINK-3919,1 52580U 22051AW  23355.67091207  .00001337  00000-0  10212-3 0  9993,2 52580  53.2171 165.9557 0001385  73.8200 286.2945 15.08834199 89243,6917.898,95.438,540.721,538.805,0.0
52580.0,STARLINK-3919,PAYLOAD,2023-12-22 17:32:16,15.08842562,0.0001362,53.2165,161.2024,73.1714,286.9427,0.00014001,1.941e-05,0.0,0 STARLINK-3919,1 52580U 22051AW  23356.73074638  .00001941  00000-0  14001-3 0  9991,2 52580  53.2165 161.2024 0001362  73.1714 286.9427 15.08842562 89472,6917.873,95.437,540.68,538.795,0.0
52580.0,STARLINK-3919,PAYLOAD,2023-12-23 14:12:17,15.08842679,0.0001347,53.2166,157.3354,73.4512,286.6628,4.995e-05,5.07e-06,0.0,0 STARLINK-3919,1 52580U 22051AW  23357.59186886  .00000507  00000-0  49950-4 0  9994,2 52580  53.2166 157.3354 0001347  73.4512 286.6628 15.08842679 89533,6917.872,95.437,540.669,538.805,0.0
52580.0,STARLINK-3919,PAYLOAD,2023-12-23 17:23:02,15.08864865,0.0001507,53.2175,156.7386,133.7971,226.3146,-0.00015529,-2.76e-05,0.0,0 STARLINK-3919,1 52580U 22051AW  23357.72433836 -.00002760  00000-0 -15529-3 0  9998,2 52580  53.2175 156.7386 0001507 133.7971 226.3146 15.08864865 89625,6917.804,95.436,540.712,538.627,0.0
52580.0,STARLINK-3919,PAYLOAD,2023-12-24 10:52:18,15.08839493,0.00013,53.2172,153.4698,89.4278,270.6863,5.9848e-05,6.65e-06,0.0,0 STARLINK-3919,1 52580U 22051AW  23358.45298918  .00000665  00000-0  59848-4 0  9992,2 52580  53.2172 153.4698 0001300  89.4278 270.6863 15.08839493 89739,6917.882,95.438,540.646,538.848,0.0
52580.0,STARLINK-3919,PAYLOAD,2023-12-24 14:03:04,15.08842468,0.0001442,53.2174,152.8758,93.3547,266.761,7.5778e-05,9.18e-06,0.0,0 STARLINK-3919,1 52580U 22051AW  23358.58546674  .00000918  00000-0  75778-4 0  9992,2 52580  53.2174 152.8758 0001442  93.3547 266.7610 15.08842468 89687,6917.873,95.437,540.735,538.74,0.0
52580.0,STARLINK-3919,PAYLOAD,2023-12-24 20:24:36,15.08847342,0.0001286,53.2178,151.6842,68.835,291.2779,0.00012116,1.641e-05,0.0,0 STARLINK-3919,1 52580U 22051AW  23358.85042094  .00001641  00000-0  12116-3 0  9999,2 52580  53.2178 151.6842 0001286  68.8350 291.2779 15.08847342 89794,6917.858,95.437,540.613,538.833,0.0
52580.0,STARLINK-3919,PAYLOAD,2023-12-25 10:43:05,15.08834085,6.84e-05,53.2178,149.0061,80.1008,280.0061,-2.4693e-05,-6.8e-06,0.0,0 STARLINK-3919,1 52580U 22051AW  23359.44659337 -.00000680  00000-0 -24693-4 0  9997,2 52580  53.2178 149.0061 0000684  80.1008 280.0061 15.08834085 89886,6917.898,95.438,540.237,539.29,0.0
52580.0,STARLINK-3919,PAYLOAD,2023-12-25 13:53:51,15.08843033,0.0001121,53.2179,148.4141,75.5799,284.5318,6.1957e-05,6.98e-06,0.0,0 STARLINK-3919,1 52580U 22051AW  23359.57906661  .00000698  00000-0  61957-4 0  9997,2 52580  53.2179 148.4141 0001121  75.5799 284.5318 15.08843033 89833,6917.871,95.437,540.512,538.961,0.0
52580.0,STARLINK-3919,PAYLOAD,2023-12-25 15:29:14,15.08843115,0.000115,53.2178,148.1168,81.2307,278.8816,7.3935e-05,8.89e-06,0.0,0 STARLINK-3919,1 52580U 22051AW  23359.64530599  .00000889  00000-0  73935-4 0  9999,2 52580  53.2178 148.1168 0001150  81.2307 278.8816 15.08843115 89918,6917.871,95.437,540.531,538.94,0.0
52580.0,STARLINK-3919,PAYLOAD,2023-12-26 10:33:53,15.08827163,0.0001143,53.2176,144.5484,78.9853,281.1268,0.00013855,1.917e-05,0.0,0 STARLINK-3919,1 52580U 22051AW  23360.44019693  .00001917  00000-0  13855-3 0  9993,2 52580  53.2176 144.5484 0001143  78.9853 281.1268 15.08827163 90036,6917.92,95.438,540.575,538.994,0.0
52580.0,STARLINK-3919,PAYLOAD,2023-12-26 13:44:39,15.08835824,0.0001257,53.2167,143.9528,90.931,269.1827,1.4611e-05,-5.5e-07,0.0,0 STARLINK-3919,1 52580U 22051AW  23360.57267569 -.00000055  00000-0  14611-4 0  9999,2 52580  53.2167 143.9528 0001257  90.9310 269.1827 15.08835824 89988,6917.893,95.438,540.628,538.889,0.0
52580.0,STARLINK-3919,PAYLOAD,2023-12-26 16:55:25,15.0883176,0.0001006,53.2166,143.359,72.2642,287.846,0.00010341,1.358e-05,0.0,0 STARLINK-3919,1 52580U 22051AW  23360.70515651  .00001358  00000-0  10341-3 0  9993,2 52580  53.2166 143.3590 0001006  72.2642 287.8460 15.08831760 90003,6917.906,95.438,540.467,539.075,0.0
52580.0,STARLINK-3919,PAYLOAD,2023-12-27 13:35:26,15.08837114,0.000117,53.2165,139.4932,87.0603,273.0523,5.0329e-05,5.13e-06,0.0,0 STARLINK-3919,1 52580U 22051AW  23361.56627711  .00000513  00000-0  50329-4 0  9992,2 52580  53.2165 139.4932 0001170  87.0603 273.0523 15.08837114 90131,6917.889,95.438,540.564,538.945,0.0
52580.0,STARLINK-3919,PAYLOAD,2023-12-27 16:46:12,15.08840668,0.0001195,53.2165,138.8982,88.1442,271.9687,7.8341e-05,9.59e-06,0.0,0 STARLINK-3919,1 52580U 22051AW  23361.69875431  .00000959  00000-0  78341-4 0  9998,2 52580  53.2165 138.8982 0001195  88.1442 271.9687 15.08840668 90225,6917.878,95.438,540.57,538.917,0.0
52580.0,STARLINK-3919,PAYLOAD,2023-12-27 19:56:58,15.08842199,0.0001229,53.2167,138.3019,95.5442,264.5691,8.316e-05,1.036e-05,0.0,0 STARLINK-3919,1 52580U 22051AW  23361.83123241  .00001036  00000-0  83160-4 0  9991,2 52580  53.2167 138.3019 0001229  95.5442 264.5691 15.08842199 90171,6917.874,95.437,540.589,538.888,0.0
52580.0,STARLINK-3919,PAYLOAD,2023-12-28 08:40:04,15.0883294,0.0001221,53.2169,135.922,103.1574,256.9555,5.2012e-05,5.4e-06,0.0,0 STARLINK-3919,1 52580U 22051AW  23362.36116111  .00000540  00000-0  52012-4 0  9999,2 52580  53.2169 135.9220 0001221 103.1574 256.9555 15.08832940 90328,6917.902,95.438,540.612,538.922,0.0
52580.0,STARLINK-3919,PAYLOAD,2023-12-28 13:26:13,15.08837,0.0001223,53.2165,135.0312,106.0304,254.0823,7.9066e-05,9.71e-06,0.0,0 STARLINK-3919,1 52580U 22051AW  23362.55987782  .00000971  00000-0  79066-4 0  9996,2 52580  53.2165 135.0312 0001223 106.0304 254.0823 15.08837000 90286,6917.89,95.438,540.601,538.909,0.0
52580.0,STARLINK-3919,PAYLOAD,2023-12-28 16:36:59,15.08849037,0.0001144,53.2168,134.4378,91.028,269.0843,-1.0131e-05,-4.49e-06,0.0,0 STARLINK-3919,1 52580U 22051AW  23362.69235349 -.00000449  00000-0 -10131-4 0  9996,2 52580  53.2168 134.4378 0001144  91.0280 269.0843 15.08849037 90373,6917.853,95.437,540.509,538.926,0.0
52580.0,STARLINK-3919,PAYLOAD,2023-12-29 08:30:51,15.08836282,0.0001342,53.2161,131.4639,89.4471,270.6675,5.4371e-05,5.77e-06,0.0,0 STARLINK-3919,1 52580U 22051AW  23363.35476152  .00000577  00000-0  54371-4 0  9993,2 52580  53.2161 131.4639 0001342  89.4471 270.6675 15.08836282 90476,6917.892,95.438,540.685,538.828,0.0
52580.0,STARLINK-3919,PAYLOAD,2023-12-29 14:52:23,15.08838793,0.0001522,53.2169,130.2761,68.4103,291.7051,3.4652e-05,2.64e-06,0.0,0 STARLINK-3919,1 52580U 22051AW  23363.61972207  .00000264  00000-0  34652-4 0  9997,2 52580  53.2169 130.2761 0001522  68.4103 291.7051 15.08838793 90444,6917.884,95.438,540.802,538.696,0.0
52580.0,STARLINK-3919,PAYLOAD,2023-12-29 16:27:47,15.08810291,0.0001478,53.2176,129.9795,69.5964,290.5187,0.00045743,6.994e-05,0.0,0 STARLINK-3919,1 52580U 22051AW  23363.68596730  .00006994  00000-0  45743-3 0  9995,2 52580  53.2176 129.9795 0001478  69.5964 290.5187 15.08810291 90520,6917.971,95.439,540.859,538.814,0.0
52580.0,STARLINK-3919,PAYLOAD,2023-12-30 13:07:47,15.08841621,0.0001659,53.2178,126.1138,65.3912,294.7253,6.5355e-05,7.52e-06,0.0,0 STARLINK-3919,1 52580U 22051AW  23364.54707981  .00000752  00000-0  65355-4 0  9991,2 52580  53.2178 126.1138 0001659  65.3912 294.7253 15.08841621 90655,6917.875,95.437,540.888,538.593,0.0
52580.0,STARLINK-3919,PAYLOAD,2023-12-30 14:43:10,15.08842736,0.0001694,53.2176,125.8164,64.7744,295.3423,7.5129e-05,9.08e-06,0.0,0 STARLINK-3919,1 52580U 22051AW  23364.61331888  .00000908  00000-0  75129-4 0  9991,2 52580  53.2176 125.8164 0001694  64.7744 295.3423 15.08842736 90590,6917.872,95.437,540.909,538.565,0.0
52580.0,STARLINK-3919,PAYLOAD,2023-12-31 17:44:44,15.08842047,0.0001341,53.2174,120.7565,103.8306,256.2835,-5.7464e-07,-2.97e-06,0.0,0 STARLINK-3919,1 52580U 22051AW  23365.73939854 -.00000297  00000-0 -57464-6 0  9999,2 52580  53.2174 120.7565 0001341 103.8306 256.2835 15.08842047 90830,6917.874,95.437,540.667,538.811,0.0
52580.0,STARLINK-3919,PAYLOAD,2024-01-01 14:24:44,15.08840983,0.0001375,53.2174,116.891,91.2408,268.8742,4.4122e-05,4.14e-06,0.0,0 STARLINK-3919,1 52580U 22051AW  24001.60051864  .00000414  00000-0  44122-4 0  9993,2 52580  53.2174 116.8910 0001375  91.2408 268.8742 15.08840983 90899,6917.877,95.437,540.694,538.791,0.0
52580.0,STARLINK-3919,PAYLOAD,2024-01-02 11:04:45,15.08838849,0.0001402,53.2178,113.0258,82.4934,277.6218,5.2781e-05,5.52e-06,0.0,0 STARLINK-3919,1 52580U 22051AW  24002.46164087  .00000552  00000-0  52781-4 0  9993,2 52580  53.2178 113.0258 0001402  82.4934 277.6218 15.08838849 91091,6917.884,95.438,540.719,538.779,0.0
52580.0,STARLINK-3919,PAYLOAD,2024-01-02 14:15:31,15.08841231,0.000145,53.218,112.4311,83.0615,277.0542,7.5309e-05,9.11e-06,0.0,0 STARLINK-3919,1 52580U 22051AW  24002.59411869  .00000911  00000-0  75309-4 0  9990,2 52580  53.2180 112.4311 0001450  83.0615 277.0542 15.08841231 91041,6917.877,95.437,540.745,538.739,0.0
52580.0,STARLINK-3919,PAYLOAD,2024-01-03 10:55:33,15.08831005,0.0001589,53.219,108.5705,96.6773,263.4401,-2.0714e-05,-6.18e-06,0.0,0 STARLINK-3919,1 52580U 22051AW  24003.45525048 -.00000618  00000-0 -20714-4 0  9997,2 52580  53.2190 108.5705 0001589  96.6773 263.4401 15.08831005 91246,6917.908,95.438,540.872,538.674,0.0
